{
  "norad_id": 67787,
  "name": "KUIPER-00260",
  "history": [
    {
      "epoch": "2026-03-28T09:54:08.355744",
      "apogee_km": 456.0576722088417,
      "perigee_km": 452.80400340447795,
      "latitude_deg": 48.96380448410068,
      "longitude_deg": -81.69071584008634,
      "semi_major_axis_km": 6832.56783780666,
      "eccentricity": 0.0002381,
      "inclination_deg": 51.8801,
      "raan_deg": 128.568,
      "arg_perigee_deg": 75.7778,
      "mean_anomaly_deg": 284.3473,
      "mean_motion_rev_day": 15.37187462
    }
  ]
}