{"fetched_at":"2026-03-29T02:12:04Z","count":15717,"tles":[{"name":"KUIPER-00260","line1":"1 67787U 26030Z   26087.41259671  .00028438  00000+0  77654-3 0  9990","line2":"2 67787  51.8801 128.5680 0002381  75.7778 284.3473 15.37187462  7883","category":"Other"}]}